{"type": "FeatureCollection", "features": [ {"type": "Feature", "properties": {"norad_id": 33870, "name": "IRIDIUM 33 DEB", "group": "iridium-33-debris", "lat": -68.25740156817601, "lon": -117.98155930255182, "alt_km": 751.9564596037617, "timestamp": "2025-12-25T07:41:10.107963+00:00", "meta": {"OBJECT_NAME": "IRIDIUM 33 DEB", "OBJECT_ID": "1997-051AP", "EPOCH": "2025-12-24T16:08:59.745408", "MEAN_MOTION": 14.45908486, "ECCENTRICITY": 0.0022611, "INCLINATION": 86.3733, "RA_OF_ASC_NODE": 53.1452, "ARG_OF_PERICENTER": 140.286, "MEAN_ANOMALY": 340.5281, "EPHEMERIS_TYPE": 0, "CLASSIFICATION_TYPE": "U", "NORAD_CAT_ID": 33870, "ELEMENT_SET_NO": 999, "REV_AT_EPOCH": 88309, "BSTAR": 0.00069261922, "MEAN_MOTION_DOT": 2.489e-05, "MEAN_MOTION_DDOT": 0}, "tle": {"line1": "1 33870U 97051AP  25358.67291372  .00002489  00000+0  69262-3 0  9993", "line2": "2 33870  86.3733  53.1452 0022611 140.2860 340.5281 14.45908486883096"}}, "geometry": {"type": "Point", "coordinates": [-117.98155930255182, -68.25740156817601]}}, {"type": "Feature", "properties": {"norad_id": 33881, "name": "IRIDIUM 33 DEB", "group": "iridium-33-debris", "lat": -65.44134189612052, "lon": -70.77538844091298, "alt_km": 726.6148488300141, "timestamp": "2025-12-25T07:41:10.107975+00:00", "meta": {"OBJECT_NAME": "IRIDIUM 33 DEB", "OBJECT_ID": "1997-051BA", "EPOCH": "2025-12-24T19:37:00.349824", "MEAN_MOTION": 14.5678795, "ECCENTRICITY": 0.00611156, "INCLINATION": 86.3859, "RA_OF_ASC_NODE": 101.4931, "ARG_OF_PERICENTER": 135.6602, "MEAN_ANOMALY": 353.6404, "EPHEMERIS_TYPE": 0, "CLASSIFICATION_TYPE": "U", "NORAD_CAT_ID": 33881, "ELEMENT_SET_NO": 999, "REV_AT_EPOCH": 87676, "BSTAR": 0.0022055938, "MEAN_MOTION_DOT": 0.0001015, "MEAN_MOTION_DDOT": 0}, "tle": {"line1": "1 33881U 97051BA  25358.81736516  .00010150  00000+0  22056-2 0  9998", "line2": "2 33881  86.3859 101.4931 0061115 135.6602 353.6404 14.56787950876761"}}, "geometry": {"type": "Point", "coordinates": [-70.77538844091298, -65.44134189612052]}}, {"type": "Feature", "properties": {"norad_id": 33884, "name": "IRIDIUM 33 DEB", "group": "iridium-33-debris", "lat": 55.07081047076935, "lon": 9.354148491346468, "alt_km": 636.3699702755357, "timestamp": "2025-12-25T07:41:10.107986+00:00", "meta": {"OBJECT_NAME": "IRIDIUM 33 DEB", "OBJECT_ID": "1997-051BD", "EPOCH": "2025-12-24T07:08:21.813216", "MEAN_MOTION": 14.77652131, "ECCENTRICITY": 0.00088851, "INCLINATION": 86.3696, "RA_OF_ASC_NODE": 4.5998, "ARG_OF_PERICENTER": 278.0535, "MEAN_ANOMALY": 99.9801, "EPHEMERIS_TYPE": 0, "CLASSIFICATION_TYPE": "U", "NORAD_CAT_ID": 33884, "ELEMENT_SET_NO": 999, "REV_AT_EPOCH": 89018, "BSTAR": 0.0016922324, "MEAN_MOTION_DOT": 0.00012148, "MEAN_MOTION_DDOT": 0}, "tle": {"line1": "1 33884U 97051BD  25358.29747469  .00012148  00000+0  16922-2 0  9996", "line2": "2 33884  86.3696   4.5998 0008885 278.0535  99.9801 14.77652131890189"}}, "geometry": {"type": "Point", "coordinates": [9.354148491346468, 55.07081047076935]}}, {"type": "Feature", "properties": {"norad_id": 33886, "name": "IRIDIUM 33 DEB", "group": "iridium-33-debris", "lat": -83.67624949167866, "lon": -83.25058030689179, "alt_km": 775.3079955812909, "timestamp": "2025-12-25T07:41:10.107996+00:00", "meta": {"OBJECT_NAME": "IRIDIUM 33 DEB", "OBJECT_ID": "1997-051BF", "EPOCH": "2025-12-24T22:54:04.271040", "MEAN_MOTION": 14.36065616, "ECCENTRICITY": 0.00134593, "INCLINATION": 86.3819, "RA_OF_ASC_NODE": 62.0872, "ARG_OF_PERICENTER": 198.3599, "MEAN_ANOMALY": 335.1292, "EPHEMERIS_TYPE": 0, "CLASSIFICATION_TYPE": "U", "NORAD_CAT_ID": 33886, "ELEMENT_SET_NO": 999, "REV_AT_EPOCH": 88227, "BSTAR": 0.0001871981, "MEAN_MOTION_DOT": 5.64e-06, "MEAN_MOTION_DDOT": 0}, "tle": {"line1": "1 33886U 97051BF  25358.95421610  .00000564  00000+0  18720-3 0  9996", "line2": "2 33886  86.3819  62.0872 0013459 198.3599 335.1292 14.36065616882276"}}, "geometry": {"type": "Point", "coordinates": [-83.25058030689179, -83.67624949167866]}}, {"type": "Feature", "properties": {"norad_id": 33887, "name": "IRIDIUM 33 DEB", "group": "iridium-33-debris", "lat": -73.42903688450518, "lon": -169.4843139041132, "alt_km": 773.9928830555082, "timestamp": "2025-12-25T07:41:10.108007+00:00", "meta": {"OBJECT_NAME": "IRIDIUM 33 DEB", "OBJECT_ID": "1997-051BG", "EPOCH": "2025-12-24T12:43:39.048384", "MEAN_MOTION": 14.37231137, "ECCENTRICITY": 0.00057177, "INCLINATION": 86.3043, "RA_OF_ASC_NODE": 358.3107, "ARG_OF_PERICENTER": 181.5027, "MEAN_ANOMALY": 307.6303, "EPHEMERIS_TYPE": 0, "CLASSIFICATION_TYPE": "U", "NORAD_CAT_ID": 33887, "ELEMENT_SET_NO": 999, "REV_AT_EPOCH": 88334, "BSTAR": 0.00014185554, "MEAN_MOTION_DOT": 4.42e-06, "MEAN_MOTION_DDOT": 0}, "tle": {"line1": "1 33887U 97051BG  25358.53031306  .00000442  00000+0  14186-3 0  9997", "line2": "2 33887  86.3043 358.3107 0005717 181.5027 307.6303 14.37231137883346"}}, "geometry": {"type": "Point", "coordinates": [-169.4843139041132, -73.42903688450518]}}, {"type": "Feature", "properties": {"norad_id": 33953, "name": "IRIDIUM 33 DEB", "group": "iridium-33-debris", "lat": -30.43334107396034, "lon": -129.55225471917828, "alt_km": 724.382440984361, "timestamp": "2025-12-25T07:41:10.108018+00:00", "meta": {"OBJECT_NAME": "IRIDIUM 33 DEB", "OBJECT_ID": "1997-051BN", "EPOCH": "2025-12-24T21:38:25.546848", "MEAN_MOTION": 14.55434367, "ECCENTRICITY": 0.00175965, "INCLINATION": 86.3831, "RA_OF_ASC_NODE": 48.4999, "ARG_OF_PERICENTER": 65.5266, "MEAN_ANOMALY": 113.0315, "EPHEMERIS_TYPE": 0, "CLASSIFICATION_TYPE": "U", "NORAD_CAT_ID": 33953, "ELEMENT_SET_NO": 999, "REV_AT_EPOCH": 88480, "BSTAR": 0.0011638657, "MEAN_MOTION_DOT": 5.088e-05, "MEAN_MOTION_DDOT": 0}, "tle": {"line1": "1 33953U 97051BN  25358.90168457  .00005088  00000+0  11639-2 0  9990", "line2": "2 33953  86.3831  48.4999 0017596  65.5266 113.0315 14.55434367884809"}}, "geometry": {"type": "Point", "coordinates": [-129.55225471917828, -30.43334107396034]}}, {"type": "Feature", "properties": {"norad_id": 33960, "name": "IRIDIUM 33 DEB", "group": "iridium-33-debris", "lat": -63.361514093652076, "lon": -83.92441258577018, "alt_km": 619.4423259928053, "timestamp": "2025-12-25T07:41:10.108028+00:00", "meta": {"OBJECT_NAME": "IRIDIUM 33 DEB", "OBJECT_ID": "1997-051BV", "EPOCH": "2025-12-24T19:16:49.587744", "MEAN_MOTION": 14.85784996, "ECCENTRICITY": 0.00071456, "INCLINATION": 86.2538, "RA_OF_ASC_NODE": 283.8251, "ARG_OF_PERICENTER": 41.1857, "MEAN_ANOMALY": 12.3181, "EPHEMERIS_TYPE": 0, "CLASSIFICATION_TYPE": "U", "NORAD_CAT_ID": 33960, "ELEMENT_SET_NO": 999, "REV_AT_EPOCH": 89046, "BSTAR": 0.003156851, "MEAN_MOTION_DOT": 0.0002755, "MEAN_MOTION_DDOT": 0}, "tle": {"line1": "1 33960U 97051BV  25358.80335171  .00027550  00000+0  31569-2 0  9998", "line2": "2 33960  86.2538 283.8251 0007145  41.1857  12.3181 14.85784996890461"}}, "geometry": {"type": "Point", "coordinates": [-83.92441258577018, -63.361514093652076]}}, {"type": "Feature", "properties": {"norad_id": 33966, "name": "IRIDIUM 33 DEB", "group": "iridium-33-debris", "lat": 75.07686706011359, "lon": 54.32609606814304, "alt_km": 718.0226631208061, "timestamp": "2025-12-25T07:41:10.108039+00:00", "meta": {"OBJECT_NAME": "IRIDIUM 33 DEB", "OBJECT_ID": "1997-051CB", "EPOCH": "2025-12-24T15:19:33.977280", "MEAN_MOTION": 14.49638139, "ECCENTRICITY": 0.00086975, "INCLINATION": 86.391, "RA_OF_ASC_NODE": 40.9201, "ARG_OF_PERICENTER": 151.377, "MEAN_ANOMALY": 329.114, "EPHEMERIS_TYPE": 0, "CLASSIFICATION_TYPE": "U", "NORAD_CAT_ID": 33966, "ELEMENT_SET_NO": 999, "REV_AT_EPOCH": 88614, "BSTAR": 0.00047088613, "MEAN_MOTION_DOT": 1.829e-05, "MEAN_MOTION_DDOT": 0}, "tle": {"line1": "1 33966U 97051CB  25358.63858770  .00001829  00000+0  47089-3 0  9996", "line2": "2 33966  86.3910  40.9201 0008697 151.3770 329.1140 14.49638139886141"}}, "geometry": {"type": "Point", "coordinates": [54.32609606814304, 75.07686706011359]}}, {"type": "Feature", "properties": {"norad_id": 34071, "name": "IRIDIUM 33 DEB", "group": "iridium-33-debris", "lat": 43.39148071767964, "lon": -171.10514178753374, "alt_km": 720.4665948499096, "timestamp": "2025-12-25T07:41:10.108050+00:00", "meta": {"OBJECT_NAME": "IRIDIUM 33 DEB", "OBJECT_ID": "1997-051CE", "EPOCH": "2025-12-24T19:27:44.466912", "MEAN_MOTION": 14.49516138, "ECCENTRICITY": 0.00098706, "INCLINATION": 86.345, "RA_OF_ASC_NODE": 12.5806, "ARG_OF_PERICENTER": 75.4624, "MEAN_ANOMALY": 284.7675, "EPHEMERIS_TYPE": 0, "CLASSIFICATION_TYPE": "U", "NORAD_CAT_ID": 34071, "ELEMENT_SET_NO": 999, "REV_AT_EPOCH": 88509, "BSTAR": 0.00060551175, "MEAN_MOTION_DOT": 2.341e-05, "MEAN_MOTION_DDOT": 0}, "tle": {"line1": "1 34071U 97051CE  25358.81093133  .00002341  00000+0  60551-3 0  9997", "line2": "2 34071  86.3450  12.5806 0009870  75.4624 284.7675 14.49516138885098"}}, "geometry": {"type": "Point", "coordinates": [-171.10514178753374, 43.39148071767964]}}, {"type": "Feature", "properties": {"norad_id": 34077, "name": "IRIDIUM 33 DEB", "group": "iridium-33-debris", "lat": -44.255419378411545, "lon": 42.43277496921568, "alt_km": 679.3238216918326, "timestamp": "2025-12-25T07:41:10.108060+00:00", "meta": {"OBJECT_NAME": "IRIDIUM 33 DEB", "OBJECT_ID": "1997-051CL", "EPOCH": "2025-12-24T21:12:18.175680", "MEAN_MOTION": 14.64984023, "ECCENTRICITY": 0.00087742, "INCLINATION": 86.3847, "RA_OF_ASC_NODE": 46.157, "ARG_OF_PERICENTER": 359.5691, "MEAN_ANOMALY": 174.5212, "EPHEMERIS_TYPE": 0, "CLASSIFICATION_TYPE": "U", "NORAD_CAT_ID": 34077, "ELEMENT_SET_NO": 999, "REV_AT_EPOCH": 88510, "BSTAR": 0.001577158, "MEAN_MOTION_DOT": 8.474e-05, "MEAN_MOTION_DDOT": 0}, "tle": {"line1": "1 34077U 97051CL  25358.88354370  .00008474  00000+0  15772-2 0  9990", "line2": "2 34077  86.3847  46.1570 0008774 359.5691 174.5212 14.64984023885101"}}, "geometry": {"type": "Point", "coordinates": [42.43277496921568, -44.255419378411545]}}]}